[
    {
        "CCSDS_OMM_VERS": "3.0",
        "COMMENT": "GENERATED VIA SPACE-TRACK.ORG API",
        "CREATION_DATE": "2025-05-03T02:26:48",
        "ORIGINATOR": "18 SPCS",
        "OBJECT_NAME": "BEIDOU 3M6",
        "OBJECT_ID": "2018-018B",
        "CENTER_NAME": "EARTH",
        "REF_FRAME": "TEME",
        "TIME_SYSTEM": "UTC",
        "MEAN_ELEMENT_THEORY": "SGP4",
        "EPOCH": "2025-05-02T11:56:10.290048",
        "MEAN_MOTION": "1.86231085",
        "ECCENTRICITY": "0.00099840",
        "INCLINATION": "56.2915",
        "RA_OF_ASC_NODE": "76.7318",
        "ARG_OF_PERICENTER": "323.8675",
        "MEAN_ANOMALY": "36.0322",
        "EPHEMERIS_TYPE": "0",
        "CLASSIFICATION_TYPE": "U",
        "NORAD_CAT_ID": "43208",
        "ELEMENT_SET_NO": "999",
        "REV_AT_EPOCH": "4909",
        "BSTAR": "0.00000000000000",
        "MEAN_MOTION_DOT": "-0.00000015",
        "MEAN_MOTION_DDOT": "0.0000000000000",
        "SEMIMAJOR_AXIS": "27906.180",
        "PERIOD": "773.233",
        "APOAPSIS": "21555.907",
        "PERIAPSIS": "21500.184",
        "OBJECT_TYPE": "PAYLOAD",
        "RCS_SIZE": "LARGE",
        "COUNTRY_CODE": "PRC",
        "LAUNCH_DATE": "2018-02-12",
        "SITE": "XSC",
        "DECAY_DATE": null,
        "FILE": "4717276",
        "GP_ID": "286715571",
        "TLE_LINE0": "0 BEIDOU 3M6",
        "TLE_LINE1": "1 43208U 18018B   25122.49734132 -.00000015  00000-0  00000-0 0  9997",
        "TLE_LINE2": "2 43208  56.2915  76.7318 0009984 323.8675  36.0322  1.86231085 49095"
    }
]